*******************************************************************************
JPL/HORIZONS                343 Ostara (A892 VA)           2023-Sep-04 11:05:47
Rec #:     343 (+COV) Soln.date: 2023-Aug-23_10:17:06   # obs: 3888 (1892-2023)
 
IAU76/J2000 helio. ecliptic osc. elements (au, days, deg., period=Julian yrs):
 
  EPOCH=  2457224.5 ! 2015-Jul-21.00 (TDB)         Residual RMS= .25548
   EC= .2290241033316878   QR= 1.859761930689204   TP= 2457537.4550300143
   OM= 38.635220337172     W=  9.633820767002499   IN= 3.264932437242096
   A= 2.412217993747874    MA= 277.669418845402    ADIST= 2.964674056806544
   PER= 3.74656            N= .263074798           ANGMOM= .026007004
   DAN= 1.86466            DDN= 2.95231            L= 48.2536964
   B= .5461015             MOID= .86896998         TP= 2016-May-28.9550300143
 
Asteroid physical parameters (km, seconds, rotational period in hours):
   GM= n.a.                RAD= 9.1065             ROTPER= 109.87
   H= 11.73                G= .150                 B-V= .770
                           ALBEDO= .092            STYP= CSGU

ASTEROID comments: 
1: soln ref.= JPL#63, OCC=0
2: source=ORB
*******************************************************************************


*******************************************************************************
Ephemeris / API_USER Mon Sep  4 11:05:47 2023 Pasadena, USA      / Horizons
*******************************************************************************
Target body name: 343 Ostara (A892 VA)            {source: JPL#63}
Center body name: Solar System Barycenter (0)     {source: DE441}
Center-site name: BODY CENTER
*******************************************************************************
Start time      : A.D. 2023-Aug-12 00:00:00.0000 TDB
Stop  time      : A.D. 2023-Aug-13 00:00:00.0000 TDB
Step-size       : 2880 minutes
*******************************************************************************
Center geodetic : 0.0, 0.0, 0.0                   {E-lon(deg),Lat(deg),Alt(km)}
Center cylindric: 0.0, 0.0, 0.0                   {E-lon(deg),Dxy(km),Dz(km)}
Center radii    : (undefined)
Small perturbers: Yes                             {source: SB441-N16}
Output units    : KM-S
Calendar mode   : Mixed Julian/Gregorian
Output type     : GEOMETRIC cartesian states
Output format   : 2 (position and velocity)
Reference frame : Ecliptic of J2000.0
*******************************************************************************
Initial IAU76/J2000 heliocentric ecliptic osculating elements (au, days, deg.):
  EPOCH=  2457224.5 ! 2015-Jul-21.00 (TDB)         Residual RMS= .25548        
   EC= .2290241033316878   QR= 1.859761930689204   TP= 2457537.4550300143      
   OM= 38.635220337172     W=  9.633820767002499   IN= 3.264932437242096       
  Equivalent ICRF heliocentric cartesian coordinates (au, au/d):
   X= 1.223422560112528E+00  Y=-1.903194098145687E+00  Z=-9.762977978856675E-01
  VX= 7.926358540924201E-03 VY= 6.765121370168466E-03 VZ= 2.984449084128802E-03
Asteroid physical parameters (km, seconds, rotational period in hours):        
   GM= n.a.                RAD= 9.1065             ROTPER= 109.87              
   H= 11.73                G= .150                 B-V= .770                   
                           ALBEDO= .092            STYP= CSGU                  
*******************************************************************************
JDTDB
   X     Y     Z
   VX    VY    VZ
*******************************************************************************
$$SOE
2460168.500000000 = A.D. 2023-Aug-12 00:00:00.0000 TDB 
 X = 2.916245726568819E+08 Y = 2.000916136696133E+07 Z =-9.468567073572129E+06
 VX=-4.729472089294474E+00 VY= 2.261066378643134E+01 VZ= 1.175524417047191E+00
$$EOE
*******************************************************************************
 
TIME

  Barycentric Dynamical Time ("TDB" or T_eph) output was requested. This
continuous coordinate time is equivalent to the relativistic proper time
of a clock at rest in a reference frame co-moving with the solar system
barycenter but outside the system's gravity well. It is the independent
variable in the solar system relativistic equations of motion.

  TDB runs at a uniform rate of one SI second per second and is independent
of irregularities in Earth's rotation.
 
CALENDAR SYSTEM

  Mixed calendar mode was active such that calendar dates after AD 1582-Oct-15
(if any) are in the modern Gregorian system. Dates prior to 1582-Oct-5 (if any)
are in the Julian calendar system, which is automatically extended for dates
prior to its adoption on 45-Jan-1 BC.  The Julian calendar is useful for
matching historical dates. The Gregorian calendar more accurately corresponds
to the Earth's orbital motion and seasons. A "Gregorian-only" calendar mode is
available if such physical events are the primary interest.

REFERENCE FRAME AND COORDINATES

  Ecliptic at the standard reference epoch

    Reference epoch: J2000.0
    X-Y plane: adopted Earth orbital plane at the reference epoch
               Note: IAU76 obliquity of 84381.448 arcseconds wrt ICRF X-Y plane
    X-axis   : ICRF
    Z-axis   : perpendicular to the X-Y plane in the directional (+ or -) sense
               of Earth's north pole at the reference epoch.

  Symbol meaning:

    JDTDB    Julian Day Number, Barycentric Dynamical Time
      X      X-component of position vector (km)
      Y      Y-component of position vector (km)
      Z      Z-component of position vector (km)
      VX     X-component of velocity vector (km/sec)                           
      VY     Y-component of velocity vector (km/sec)                           
      VZ     Z-component of velocity vector (km/sec)                           

ABERRATIONS AND CORRECTIONS

 Geometric state vectors have NO corrections or aberrations applied.

Computations by ...

    Solar System Dynamics Group, Horizons On-Line Ephemeris System
    4800 Oak Grove Drive, Jet Propulsion Laboratory
    Pasadena, CA  91109   USA

    General site: https://ssd.jpl.nasa.gov/
    Mailing list: https://ssd.jpl.nasa.gov/email_list.html
    System news : https://ssd.jpl.nasa.gov/horizons/news.html
    User Guide  : https://ssd.jpl.nasa.gov/horizons/manual.html
    Connect     : browser        https://ssd.jpl.nasa.gov/horizons/app.html#/x
                  API            https://ssd-api.jpl.nasa.gov/doc/horizons.html
                  command-line   telnet ssd.jpl.nasa.gov 6775
                  e-mail/batch   https://ssd.jpl.nasa.gov/ftp/ssd/hrzn_batch.txt
                  scripts        https://ssd.jpl.nasa.gov/ftp/ssd/SCRIPTS
    Author      : Jon.D.Giorgini@jpl.nasa.gov
*******************************************************************************
